TEVEL2-2                
1 63219U 25052K   26068.64848259  .00020339  00000+0  69428-3 0  9991
2 63219  97.3987 324.7700 0004693 105.7930 254.3828 15.30343745 54855
STARLINK-35315          
1 66543U 25265AD  26067.98905385  .00028713  00000+0  10484-2 0  9991
2 66543  43.0051 282.1148 0002391 271.0191  89.0386 15.27594453 17008
